POEM-2                  
1 56308U 23057A   26068.98468983  .00003020  00000+0  20743-3 0  9999
2 56308   9.8873 262.7521 0021373 321.9306  37.9396 14.94660083157397
STARLINK-5979           
1 56345U 23058AE  26068.90109118  .00000114  00000+0  13419-4 0  9999
2 56345  97.6037  70.4284 0002849 135.1662 224.9793 15.01261582158167
